[{"OBJECT_NAME":"TIANQI-24","OBJECT_ID":"2023-135D","EPOCH":"2026-03-09T20:57:37.180800","MEAN_MOTION":14.23089643,"ECCENTRICITY":0.00134171,"INCLINATION":49.9722,"RA_OF_ASC_NODE":210.6392,"ARG_OF_PERICENTER":273.0428,"MEAN_ANOMALY":86.8949,"EPHEMERIS_TYPE":0,"CLASSIFICATION_TYPE":"U","NORAD_CAT_ID":57795,"ELEMENT_SET_NO":999,"REV_AT_EPOCH":13048,"BSTAR":0.00014051861,"MEAN_MOTION_DOT":1.6e-6,"MEAN_MOTION_DDOT":0},{"OBJECT_NAME":"DMSP 5D-3 F19 DEB","OBJECT_ID":"2014-015C","EPOCH":"2026-03-09T22:36:05.110848","MEAN_MOTION":14.25877862,"ECCENTRICITY":0.00060547,"INCLINATION":98.6688,"RA_OF_ASC_NODE":82.2331,"ARG_OF_PERICENTER":59.0727,"MEAN_ANOMALY":301.1047,"EPHEMERIS_TYPE":0,"CLASSIFICATION_TYPE":"U","NORAD_CAT_ID":39632,"ELEMENT_SET_NO":999,"REV_AT_EPOCH":61761,"BSTAR":0.00095825148,"MEAN_MOTION_DOT":2.238e-5,"MEAN_MOTION_DDOT":0}]
